FENGYUN 1C DEB          
1 32209U 99025CVF 17346.50032720  .00000162  00000-0  25751-3 0  9993
2 32209  99.4344  88.9819 0348672  70.2693 293.5691 13.40182453508628
